{
    "links": {
        "self": "http://www.neowsapp.com/rest/v1/neo/3551474?api_key=iIulBulltgU6a56xZRHN4H3l9WmuAYTsLGpBGhQ2"
    },
    "id": "3551474",
    "neo_reference_id": "3551474",
    "name": "(2010 VJ139)",
    "designation": "2010 VJ139",
    "nasa_jpl_url": "http://ssd.jpl.nasa.gov/sbdb.cgi?sstr=3551474",
    "absolute_magnitude_h": 21.9,
    "estimated_diameter": {
        "kilometers": {
            "estimated_diameter_min": 0.1108038821,
            "estimated_diameter_max": 0.2477650126
        },
        "meters": {
            "estimated_diameter_min": 110.8038821264,
            "estimated_diameter_max": 247.7650126055
        },
        "miles": {
            "estimated_diameter_min": 0.068850319,
            "estimated_diameter_max": 0.1539539936
        },
        "feet": {
            "estimated_diameter_min": 363.5298086356,
            "estimated_diameter_max": 812.8773639568
        }
    },
    "is_potentially_hazardous_asteroid": false,
    "close_approach_data": [
        {
            "close_approach_date": "1987-03-20",
            "close_approach_date_full": "1987-Mar-20 07:45",
            "epoch_date_close_approach": 543224700000,
            "relative_velocity": {
                "kilometers_per_second": "8.1219076654",
                "kilometers_per_hour": "29238.8675953999",
                "miles_per_hour": "18167.8952567083"
            },
            "miss_distance": {
                "astronomical": "0.0597048884",
                "lunar": "23.2252015876",
                "kilometers": "8931724.133227708",
                "miles": "5549916.0233620504"
            },
            "orbiting_body": "Mars"
        },
        {
            "close_approach_date": "2002-10-25",
            "close_approach_date_full": "2002-Oct-25 02:49",
            "epoch_date_close_approach": 1035514140000,
            "relative_velocity": {
                "kilometers_per_second": "20.0232247628",
                "kilometers_per_hour": "72083.6091462517",
                "miles_per_hour": "44789.951472014"
            },
            "miss_distance": {
                "astronomical": "0.3650382004",
                "lunar": "141.9998599556",
                "kilometers": "54608937.248473148",
                "miles": "33932420.1389715224"
            },
            "orbiting_body": "Earth"
        },
        {
            "close_approach_date": "2010-09-09",
            "close_approach_date_full": "2010-Sep-09 10:09",
            "epoch_date_close_approach": 1284026940000,
            "relative_velocity": {
                "kilometers_per_second": "8.2357818551",
                "kilometers_per_hour": "29648.8146784793",
                "miles_per_hour": "18422.6204317473"
            },
            "miss_distance": {
                "astronomical": "0.1793903535",
                "lunar": "69.7828475115",
                "kilometers": "26836414.782147045",
                "miles": "16675374.898217421"
            },
            "orbiting_body": "Earth"
        },
        {
            "close_approach_date": "2026-05-01",
            "close_approach_date_full": "2026-May-01 19:18",
            "epoch_date_close_approach": 1777663080000,
            "relative_velocity": {
                "kilometers_per_second": "21.7350041496",
                "kilometers_per_hour": "78246.0149385769",
                "miles_per_hour": "48619.0307822508"
            },
            "miss_distance": {
                "astronomical": "0.3971796696",
                "lunar": "154.5028914744",
                "kilometers": "59417232.579463752",
                "miles": "36920156.3144816976"
            },
            "orbiting_body": "Earth"
        }
    ],
    "orbital_data": {
        "orbit_id": "9",
        "orbit_determination_date": "2017-04-06 08:55:44",
        "first_observation_date": "2010-11-13",
        "last_observation_date": "2010-11-30",
        "data_arc_in_days": 17,
        "observations_used": 23,
        "orbit_uncertainty": "7",
        "minimum_orbit_intersection": ".06751",
        "jupiter_tisserand_invariant": "4.763",
        "epoch_osculation": "2459000.5",
        "eccentricity": ".3745924121055554",
        "semi_major_axis": "1.359911114272099",
        "inclination": "8.930740691019952",
        "ascending_node_longitude": "270.2243913513894",
        "orbital_period": "579.2475581286781",
        "perihelion_distance": ".85049872972776",
        "perihelion_argument": "36.79651188370077",
        "aphelion_distance": "1.869323498816438",
        "perihelion_time": "2458893.811536282979",
        "mean_anomaly": "66.30644600765905",
        "mean_motion": ".6214959302772358",
        "equinox": "J2000",
        "orbit_class": {
            "orbit_class_type": "APO",
            "orbit_class_description": "Near-Earth asteroid orbits which cross the Earth’s orbit similar to that of 1862 Apollo",
            "orbit_class_range": "a (semi-major axis) > 1.0 AU; q (perihelion) < 1.017 AU"
        }
    },
    "is_sentry_object": false
}